1 32789U 08021G   23247.51585066  .00092740  00000-0  16908-2 0  9992
2 32789  97.2960 269.0921 0007686 158.9736 201.1832 15.49093740839615
1 32789U 08021G   23247.51585066  .00092740  00000-0  16908-2 0  9992
2 32789  97.2960 269.0921 0007686 158.9736 201.1832 15.49093740839716
1 32789U 08021G   23248.03260493  .00095271  00000-0  17303-2 0  9996
2 32789  97.2962 269.6139 0007807 158.2285 201.9300 15.49192431839694
1 32789U 08021G   23248.80767646  .00111640  00000-0  20127-2 0  9990
2 32789  97.2963 270.3976 0007879 156.4467 203.7146 15.49340021839917
1 32789U 08021G   23249.00143146  .00113013  00000-0  20336-2 0  9994
2 32789  97.2963 270.5937 0007902 156.0028 204.1593 15.49388680839848
1 32789U 08021G   23250.03471270  .00119763  00000-0  21373-2 0  9991
2 32789  97.2964 271.6384 0008032 153.7406 206.4254 15.49598300840108
1 32789U 08021G   23250.48672933  .00117022  00000-0  20830-2 0  9992
2 32789  97.2964 272.0962 0008060 152.6484 207.5194 15.49682229840075
1 32789U 08021G   23251.06785120  .00137897  00000-0  24361-2 0  9995
2 32789  97.2962 272.6841 0008134 151.5552 208.6145 15.49818744840263
1 32789U 08021G   23251.58436642  .00100689  00000-0  17817-2 0  9991
2 32789  97.2961 273.2073 0008113 150.4346 209.7365 15.49912130840240
1 32789U 08021G   23251.58436642  .00100689  00000-0  17817-2 0  9991
2 32789  97.2961 273.2073 0008113 150.4346 209.7365 15.49912130840341
1 32789U 08021G   23251.84261014  .00116224  00000-0  20480-2 0  9991
2 32789  97.2961 273.4682 0008237 150.3567 209.8153 15.49971445840283
1 32789U 08021G   23252.03628740  .00113776  00000-0  20025-2 0  9990
2 32789  97.2961 273.6643 0008259 149.9491 210.2236 15.50014075840418
1 32789U 08021G   23252.55273257  .00119946  00000-0  21007-2 0  9992
2 32789  97.2959 274.1876 0008215 148.5770 211.5974 15.50131716840398
1 32789U 08021G   23253.00458755  .00133001  00000-0  23155-2 0  9995
2 32789  97.2957 274.6447 0008324 147.7793 212.3969 15.50251334840563
1 32789U 08021G   23253.58550102  .00112480  00000-0  19554-2 0  9993
2 32789  97.2954 275.2335 0008331 146.0999 214.0787 15.50368996840550
1 32789U 08021G   23253.58550102  .00112480  00000-0  19554-2 0  9993
2 32789  97.2954 275.2335 0008331 146.0999 214.0787 15.50368996840651
1 32789U 08021G   23254.29544018  .00121892  00000-0  21045-2 0  9996
2 32789  97.2951 275.9527 0008393 144.7975 215.3833 15.50528255840668
1 32789U 08021G   23254.61811486  .00130215  00000-0  22392-2 0  9993
2 32789  97.2949 276.2791 0008251 144.0655 216.1153 15.50612399840817
1 32789U 08021G   23255.58603723  .00129398  00000-0  22064-2 0  9999
2 32789  97.2944 277.2602 0008292 141.9231 218.2609 15.50854560840867
1 32789U 08021G   23256.03767465  .00183170  00000-0  30834-2 0  9996
2 32789  97.2943 277.7175 0008353 141.4807 218.7043 15.51021059841035
1 32789U 08021G   23256.55377475  .00165158  00000-0  27694-2 0  9997
2 32789  97.2939 278.2412 0008363 139.9484 220.2387 15.51196022841014
1 32789U 08021G   23256.61828327  .00163133  00000-0  27342-2 0  9992
2 32789  97.2938 278.3064 0008377 139.8283 220.3590 15.51216142841123
1 32789U 08021G   23256.81180368  .00149044  00000-0  24977-2 0  9996
2 32789  97.2939 278.5029 0008505 140.0154 220.1726 15.51270267841050
1 32789U 08021G   23257.00531854  .00138989  00000-0  23278-2 0  9997
2 32789  97.2939 278.6989 0008609 139.3765 220.8131 15.51322977841187
1 32789U 08021G   23257.52132632  .00142622  00000-0  23763-2 0  9993
2 32789  97.2934 279.2229 0008559 137.7497 222.4416 15.51456234841160
1 32789U 08021G   23257.58582418  .00141085  00000-0  23498-2 0  9997
2 32789  97.2933 279.2882 0008566 137.6395 222.5520 15.51472405841174
1 32789U 08021G   23258.03728955  .00127612  00000-0  21205-2 0  9990
2 32789  97.2933 279.7456 0008656 137.5001 222.6923 15.51585957841343
1 32789U 08021G   23258.29525429  .00153602  00000-0  25372-2 0  9996
2 32789  97.2931 280.0077 0008641 136.7484 223.4448 15.51658946841389
1 32789U 08021G   23258.55320787  .00119121  00000-0  19723-2 0  9996
2 32789  97.2930 280.2695 0008615 135.9243 224.2698 15.51718571841322
1 32789U 08021G   23258.61769451  .00120904  00000-0  20001-2 0  9990
2 32789  97.2931 280.3349 0008623 135.8234 224.3709 15.51736061841438
1 32789U 08021G   23259.58491486  .00111334  00000-0  18286-2 0  9996
2 32789  97.2926 281.3165 0008710 133.9126 226.2847 15.51972301841483
1 32789U 08021G   23260.03623424  .00122293  00000-0  19975-2 0  9999
2 32789  97.2926 281.7739 0008745 133.4007 226.7976 15.52086896841658
1 32789U 08021G   23260.29411574  .00159204  00000-0  25812-2 0  9997
2 32789  97.2926 282.0360 0008709 132.6549 227.5439 15.52160956841590
1 32789U 08021G   23260.29411574  .00159204  00000-0  25812-2 0  9997
2 32789  97.2926 282.0360 0008709 132.6549 227.5439 15.52160956841691
1 32789U 08021G   23260.61645126  .00209775  00000-0  33666-2 0  9990
2 32789  97.2924 282.3632 0008683 132.0240 228.1753 15.52266123841742
1 32789U 08021G   23261.00322611  .00167201  00000-0  26878-2 0  9999
2 32789  97.2927 282.7556 0008764 131.5754 228.6252 15.52370794841804
1 32789U 08021G   23261.58333675  .00163450  00000-0  26127-2 0  9993
2 32789  97.2925 283.3451 0008721 129.9139 230.2881 15.52542633841792
1 32789U 08021G   23261.64778908  .00166730  00000-0  26618-2 0  9991
2 32789  97.2925 283.4104 0008727 129.8675 230.3347 15.52565674841808
1 32789U 08021G   23261.64778908  .00166730  00000-0  26618-2 0  9991
2 32789  97.2925 283.4104 0008727 129.8675 230.3347 15.52565674841909
1 32789U 08021G   23262.03448072  .00186800  00000-0  29579-2 0  9990
2 32789  97.2926 283.8028 0008752 129.3290 230.8740 15.52722428841965
1 32789U 08021G   23262.29225156  .00180551  00000-0  28500-2 0  9994
2 32789  97.2926 284.0652 0008747 128.2006 232.0036 15.52832246842006
1 32789U 08021G   23262.61444227  .00211390  00000-0  33069-2 0  9994
2 32789  97.2925 284.3925 0008709 127.3111 232.8938 15.52974139842058
1 32789U 08021G   23263.00103526  .00205906  00000-0  32061-2 0  9999
2 32789  97.2928 284.7853 0008665 126.6141 233.5910 15.53123942842115
1 32789U 08021G   23263.58086523  .00168411  00000-0  26184-2 0  9997
2 32789  97.2927 285.3747 0008630 125.0481 235.1583 15.53297974842105
1 32789U 08021G   23263.58086523  .00168411  00000-0  26184-2 0  9997
2 32789  97.2927 285.3747 0008630 125.0481 235.1583 15.53297974842206
1 32789U 08021G   23263.83854576  .00148784  00000-0  23130-2 0  9995
2 32789  97.2924 285.6365 0008734 125.0147 235.1928 15.53369721842142
1 32789U 08021G   23264.03179723  .00147374  00000-0  22863-2 0  9998
2 32789  97.2924 285.8332 0008662 124.6232 235.5839 15.53433447842274
1 32789U 08021G   23264.54710049  .00155593  00000-0  23980-2 0  9999
2 32789  97.2925 286.3573 0008614 123.8577 236.3498 15.53586782842257
1 32789U 08021G   23264.86913815  .00158153  00000-0  24280-2 0  9999
2 32789  97.2928 286.6844 0008597 124.1425 236.0645 15.53685609842305
1 32789U 08021G   23265.06235133  .00153503  00000-0  23528-2 0  9990
2 32789  97.2929 286.8810 0008604 123.6839 236.5236 15.53746699842435
1 32789U 08021G   23265.57754885  .00160232  00000-0  24395-2 0  9996
2 32789  97.2926 287.4056 0008589 122.6244 237.5839 15.53908944842413
1 32789U 08021G   23265.64194474  .00161507  00000-0  24567-2 0  9993
2 32789  97.2925 287.4709 0008586 122.6015 237.6069 15.53929357842428
1 32789U 08021G   23266.02830142  .00176773  00000-0  26708-2 0  9995
2 32789  97.2927 287.8638 0008549 122.1643 238.0442 15.54062683842584
1 32789U 08021G   23266.54339355  .00164714  00000-0  24773-2 0  9994
2 32789  97.2927 288.3885 0008525 120.6278 239.5818 15.54230928842565
1 32789U 08021G   23266.60777584  .00167661  00000-0  25185-2 0  9993
2 32789  97.2927 288.4540 0008512 120.5969 239.6126 15.54254806842672
1 32789U 08021G   23267.05842574  .00169398  00000-0  25292-2 0  9993
2 32789  97.2929 288.9124 0008510 120.0948 240.1151 15.54415937842643
1 32789U 08021G   23267.05842574  .00169398  00000-0  25292-2 0  9993
2 32789  97.2929 288.9124 0008510 120.0948 240.1151 15.54415937842744
1 32789U 08021G   23267.63776388  .00169136  00000-0  25066-2 0  9995
2 32789  97.2925 289.5027 0008417 118.4705 241.7398 15.54622253842737
1 32789U 08021G   23267.63776388  .00169136  00000-0  25066-2 0  9995
2 32789  97.2925 289.5027 0008417 118.4705 241.7398 15.54622253842838
1 32789U 08021G   23268.53879157  .00223808  00000-0  32480-2 0  9998
2 32789  97.2923 290.4210 0008386 116.8563 243.3550 15.55008530842879
1 32789U 08021G   23268.79618338  .00239469  00000-0  34526-2 0  9991
2 32789  97.2925 290.6834 0008333 116.6639 243.5469 15.55134568842916
1 32789U 08021G   23268.79618338  .00239469  00000-0  34526-2 0  9991
2 32789  97.2925 290.6834 0008333 116.6639 243.5469 15.55134568843018
1 32789U 08021G   23269.05355642  .00201652  00000-0  29099-2 0  9999
2 32789  97.2924 290.9458 0008290 116.0412 244.1697 15.55241563843055
1 32789U 08021G   23269.56824926  .00233546  00000-0  33290-2 0  9996
2 32789  97.2920 291.4707 0008144 115.5468 244.6630 15.55468921843036
1 32789U 08021G   23269.63258038  .00234556  00000-0  33393-2 0  9995
2 32789  97.2916 291.5363 0008150 115.3229 244.8871 15.55498942843046
1 32789U 08021G   23269.63258038  .00234556  00000-0  33393-2 0  9995
2 32789  97.2916 291.5363 0008150 115.3229 244.8871 15.55498942843147
1 32789U 08021G   23270.01854292  .00227511  00000-0  32215-2 0  9998
2 32789  97.2914 291.9302 0008132 114.3578 245.8526 15.55671265843204
1 32789U 08021G   23270.53309963  .00191070  00000-0  26990-2 0  9998
2 32789  97.2911 292.4552 0008105 113.1092 247.1018 15.55862377843186
1 32789U 08021G   23270.53309963  .00191070  00000-0  26990-2 0  9998
2 32789  97.2911 292.4552 0008105 113.1092 247.1018 15.55862377843287
1 32789U 08021G   23271.62632136  .00171191  00000-0  23894-2 0  9992
2 32789  97.2903 293.5715 0008002 111.6069 248.6040 15.56257704843356
1 32789U 08021G   23271.62632136  .00171191  00000-0  23894-2 0  9992
2 32789  97.2903 293.5715 0008002 111.6069 248.6040 15.56257704843457
